[{"OBJECT_NAME":"IRS-P6 (RESOURCESAT-1)","OBJECT_ID":"2003-046A","EPOCH":"2026-03-10T00:23:01.313952","MEAN_MOTION":14.36117534,"ECCENTRICITY":0.00629144,"INCLINATION":98.2042,"RA_OF_ASC_NODE":110.3286,"ARG_OF_PERICENTER":280.126,"MEAN_ANOMALY":140.7181,"EPHEMERIS_TYPE":0,"CLASSIFICATION_TYPE":"U","NORAD_CAT_ID":28051,"ELEMENT_SET_NO":999,"REV_AT_EPOCH":16629,"BSTAR":9.8466414e-5,"MEAN_MOTION_DOT":2.52e-6,"MEAN_MOTION_DDOT":0},{"OBJECT_NAME":"SL-16 DEB","OBJECT_ID":"1993-016BN","EPOCH":"2026-03-06T07:37:12.094176","MEAN_MOTION":14.44626777,"ECCENTRICITY":0.00751548,"INCLINATION":70.9482,"RA_OF_ASC_NODE":301.3586,"ARG_OF_PERICENTER":170.6602,"MEAN_ANOMALY":189.5955,"EPHEMERIS_TYPE":0,"CLASSIFICATION_TYPE":"U","NORAD_CAT_ID":39888,"ELEMENT_SET_NO":999,"REV_AT_EPOCH":60892,"BSTAR":0.0024565961,"MEAN_MOTION_DOT":8.769e-5,"MEAN_MOTION_DDOT":0}]
